{
  "type": "FeatureCollection",
  "features": [
    {
      "type": "Feature",
      "properties": {
        "norad_id": 36390,
        "name": "IRIDIUM 33 DEB",
        "group": "iridium-33-debris",
        "lat": -81.73799101662252,
        "lon": 140.22381824283525,
        "alt_km": 674.3812002936911,
        "timestamp": "2025-12-25T03:55:56.752378+00:00",
        "meta_object_name": "IRIDIUM 33 DEB",
        "meta_object_id": "1997-051VU",
        "meta_epoch": "2025-12-22T03:02:43.455840",
        "meta_mean_motion": 14.73721752,
        "meta_eccentricity": 0.00320639,
        "meta_inclination": 86.292,
        "meta_ra_of_asc_node": 295.0892,
        "meta_arg_of_pericenter": 130.5813,
        "meta_mean_anomaly": 229.8203,
        "meta_ephemeris_type": 0,
        "meta_classification_type": "U",
        "meta_norad_cat_id": 36390,
        "meta_element_set_no": 999,
        "meta_rev_at_epoch": 66400,
        "meta_bstar": 0.0010853374,
        "meta_mean_motion_dot": 7.17e-05,
        "meta_mean_motion_ddot": 0,
        "tle_line1": "1 36390U 97051VU  25356.12689185  .00007170  00000+0  10853-2 0  9997",
        "tle_line2": "2 36390  86.2920 295.0892 0032063 130.5813 229.8203 14.73721752664001"
      },
      "geometry": {
        "type": "Point",
        "coordinates": [
          140.22381824283525,
          -81.73799101662252
        ]
      }
    },
    {
      "type": "Feature",
      "properties": {
        "norad_id": 36483,
        "name": "IRIDIUM 33 DEB",
        "group": "iridium-33-debris",
        "lat": 82.40273335037821,
        "lon": 75.5195326875672,
        "alt_km": 723.7985783261847,
        "timestamp": "2025-12-25T03:55:56.752388+00:00",
        "meta_object_name": "IRIDIUM 33 DEB",
        "meta_object_id": "1997-051VZ",
        "meta_epoch": "2025-12-21T21:28:56.984736",
        "meta_mean_motion": 14.45839576,
        "meta_eccentricity": 0.00113894,
        "meta_inclination": 86.3785,
        "meta_ra_of_asc_node": 48.5705,
        "meta_arg_of_pericenter": 100.875,
        "meta_mean_anomaly": 259.3734,
        "meta_ephemeris_type": 0,
        "meta_classification_type": "U",
        "meta_norad_cat_id": 36483,
        "meta_element_set_no": 999,
        "meta_rev_at_epoch": 65278,
        "meta_bstar": 0.00044994046,
        "meta_mean_motion_dot": 1.617e-05,
        "meta_mean_motion_ddot": 0,
        "tle_line1": "1 36483U 97051VZ  25355.89510399  .00001617  00000+0  44994-3 0  9997",
        "tle_line2": "2 36483  86.3785  48.5705 0011389 100.8750 259.3734 14.45839576652788"
      },
      "geometry": {
        "type": "Point",
        "coordinates": [
          75.5195326875672,
          82.40273335037821
        ]
      }
    },
    {
      "type": "Feature",
      "properties": {
        "norad_id": 36490,
        "name": "IRIDIUM 33 DEB",
        "group": "iridium-33-debris",
        "lat": -81.07822067199479,
        "lon": -151.25584620766466,
        "alt_km": 651.1807970257878,
        "timestamp": "2025-12-25T03:55:56.752399+00:00",
        "meta_object_name": "IRIDIUM 33 DEB",
        "meta_object_id": "1997-051WG",
        "meta_epoch": "2025-12-23T18:13:03.957312",
        "meta_mean_motion": 14.76410999,
        "meta_eccentricity": 0.00050592,
        "meta_inclination": 86.3652,
        "meta_ra_of_asc_node": 5.4915,
        "meta_arg_of_pericenter": 59.5237,
        "meta_mean_anomaly": 300.6482,
        "meta_ephemeris_type": 0,
        "meta_classification_type": "U",
        "meta_norad_cat_id": 36490,
        "meta_element_set_no": 999,
        "meta_rev_at_epoch": 86647,
        "meta_bstar": 0.0016428856,
        "meta_mean_motion_dot": 0.00011451,
        "meta_mean_motion_ddot": 0,
        "tle_line1": "1 36490U 97051WG  25357.75907358  .00011451  00000+0  16429-2 0  9995",
        "tle_line2": "2 36490  86.3652   5.4915 0005059  59.5237 300.6482 14.76410999866472"
      },
      "geometry": {
        "type": "Point",
        "coordinates": [
          -151.25584620766466,
          -81.07822067199479
        ]
      }
    },
    {
      "type": "Feature",
      "properties": {
        "norad_id": 36493,
        "name": "IRIDIUM 33 DEB",
        "group": "iridium-33-debris",
        "lat": 52.73300702501611,
        "lon": 10.96225108625497,
        "alt_km": 671.2837314470535,
        "timestamp": "2025-12-25T03:55:56.752409+00:00",
        "meta_object_name": "IRIDIUM 33 DEB",
        "meta_object_id": "1997-051WK",
        "meta_epoch": "2025-12-23T07:26:33.103968",
        "meta_mean_motion": 14.65359392,
        "meta_eccentricity": 0.00090124,
        "meta_inclination": 86.3569,
        "meta_ra_of_asc_node": 6.9826,
        "meta_arg_of_pericenter": 326.7527,
        "meta_mean_anomaly": 33.3119,
        "meta_ephemeris_type": 0,
        "meta_classification_type": "U",
        "meta_norad_cat_id": 36493,
        "meta_element_set_no": 999,
        "meta_rev_at_epoch": 74673,
        "meta_bstar": 0.0013164613,
        "meta_mean_motion_dot": 7.136e-05,
        "meta_mean_motion_ddot": 0,
        "tle_line1": "1 36493U 97051WK  25357.31010537  .00007136  00000+0  13165-2 0  9993",
        "tle_line2": "2 36493  86.3569   6.9826 0009012 326.7527  33.3119 14.65359392746733"
      },
      "geometry": {
        "type": "Point",
        "coordinates": [
          10.96225108625497,
          52.73300702501611
        ]
      }
    },
    {
      "type": "Feature",
      "properties": {
        "norad_id": 37548,
        "name": "IRIDIUM 33 DEB",
        "group": "iridium-33-debris",
        "lat": -23.851460981956425,
        "lon": 36.34738344471857,
        "alt_km": 744.8522477607603,
        "timestamp": "2025-12-25T03:55:56.752419+00:00",
        "meta_object_name": "IRIDIUM 33 DEB",
        "meta_object_id": "1997-051XH",
        "meta_epoch": "2025-12-15T20:39:30.861504",
        "meta_mean_motion": 14.51326297,
        "meta_eccentricity": 0.00258157,
        "meta_inclination": 86.3522,
        "meta_ra_of_asc_node": 42.0105,
        "meta_arg_of_pericenter": 178.4192,
        "meta_mean_anomaly": 181.71,
        "meta_ephemeris_type": 0,
        "meta_classification_type": "U",
        "meta_norad_cat_id": 37548,
        "meta_element_set_no": 999,
        "meta_rev_at_epoch": 65577,
        "meta_bstar": 0.00067405053,
        "meta_mean_motion_dot": 2.715e-05,
        "meta_mean_motion_ddot": 0,
        "tle_line1": "1 37548U 97051XH  25349.86077386  .00002715  00000+0  67405-3 0  9996",
        "tle_line2": "2 37548  86.3522  42.0105 0025815 178.4192 181.7100 14.51326297655778"
      },
      "geometry": {
        "type": "Point",
        "coordinates": [
          36.34738344471857,
          -23.851460981956425
        ]
      }
    },
    {
      "type": "Feature",
      "properties": {
        "norad_id": 37550,
        "name": "IRIDIUM 33 DEB",
        "group": "iridium-33-debris",
        "lat": 4.13853430228114,
        "lon": 18.62989777056473,
        "alt_km": 671.1797473655288,
        "timestamp": "2025-12-25T03:55:56.752429+00:00",
        "meta_object_name": "IRIDIUM 33 DEB",
        "meta_object_id": "1997-051XK",
        "meta_epoch": "2025-12-23T19:10:49.593504",
        "meta_mean_motion": 14.67349531,
        "meta_eccentricity": 0.00055645,
        "meta_inclination": 86.3769,
        "meta_ra_of_asc_node": 18.9721,
        "meta_arg_of_pericenter": 86.6044,
        "meta_mean_anomaly": 273.5807,
        "meta_ephemeris_type": 0,
        "meta_classification_type": "U",
        "meta_norad_cat_id": 37550,
        "meta_element_set_no": 999,
        "meta_rev_at_epoch": 86495,
        "meta_bstar": 0.0012621421,
        "meta_mean_motion_dot": 7.151e-05,
        "meta_mean_motion_ddot": 0,
        "tle_line1": "1 37550U 97051XK  25357.79918511  .00007151  00000+0  12621-2 0  9992",
        "tle_line2": "2 37550  86.3769  18.9721 0005564  86.6044 273.5807 14.67349531864954"
      },
      "geometry": {
        "type": "Point",
        "coordinates": [
          18.62989777056473,
          4.13853430228114
        ]
      }
    },
    {
      "type": "Feature",
      "properties": {
        "norad_id": 37562,
        "name": "IRIDIUM 33 DEB",
        "group": "iridium-33-debris",
        "lat": 85.60357157877522,
        "lon": 162.590263664621,
        "alt_km": 679.702039605656,
        "timestamp": "2025-12-25T03:55:56.752440+00:00",
        "meta_object_name": "IRIDIUM 33 DEB",
        "meta_object_id": "1997-051XX",
        "meta_epoch": "2025-12-23T20:59:31.951104",
        "meta_mean_motion": 14.56567158,
        "meta_eccentricity": 0.0026368,
        "meta_inclination": 86.3729,
        "meta_ra_of_asc_node": 38.7447,
        "meta_arg_of_pericenter": 72.8673,
        "meta_mean_anomaly": 103.8436,
        "meta_ephemeris_type": 0,
        "meta_classification_type": "U",
        "meta_norad_cat_id": 37562,
        "meta_element_set_no": 999,
        "meta_rev_at_epoch": 86490,
        "meta_bstar": 0.001046,
        "meta_mean_motion_dot": 4.7e-05,
        "meta_mean_motion_ddot": 0,
        "tle_line1": "1 37562U 97051XX  25357.87467536  .00004700  00000+0  10460-2 0  9996",
        "tle_line2": "2 37562  86.3729  38.7447 0026368  72.8673 103.8436 14.56567158864901"
      },
      "geometry": {
        "type": "Point",
        "coordinates": [
          162.590263664621,
          85.60357157877522
        ]
      }
    }
  ]
}